#dP2018  6 21  0  0  0.00000000      96 __u+U ITR00 FIT  IAC
## 2006 345600.00000000   900.00000000 58290 0.0000000000000
+   85   C01C02C03C04C05C06C07C08C09C10C11C12C13C14E01E02E03
+        E04E05E07E08E09E11E12E14E18E19E24E26E30G01G02G03G05
+        G06G07G08G09G10G11G12G13G14G15G16G17G18G19G20G21G22
+        G23G24G25G26G27G28G29G30G31G32J01R01R02R03R04R05R07
+        R08R09R10R11R13R14R15R16R17R18R19R20R21R22R23R24R26
++        12 12 12 13 11  9  9  9  9  8  8  8  9  8  6  6  7
++         7  7  6  6  7  7  6  7  7  7  7  6  6  4  3  4  3
++         3  3  3  3  4  4  4  4  4  4  3  3  4  4  4  4  4
++         3  4  4  3  4  4  3  3  4  4  0  6  6  6  6  6  5
++         6  5  5  5  5  5  5  5  5  5  5  5  5  5  5  6  9
%c M  cc GPS ccc cccc cccc cccc cccc ccccc ccccc ccccc ccccc
%c cc cc ccc ccc cccc cccc cccc cccc ccccc ccccc ccccc ccccc
%f  0.0000000  0.000000000  0.00000000000  0.000000000000000
%f  0.0000000  0.000000000  0.00000000000  0.000000000000000
%i    0    0    0    0      0      0      0      0         0
%i    0    0    0    0      0      0      0      0         0
/* INFORMATION & ANALYSIS CENTER (IAC) OF MCC   (RAPID DATA)
/* S/V CLOCKS ARE ALIGNED TO GPS & GLONASS TIME RESPECTIVELY
/* USING THE BROADCAST EPHEMERIS                            
/* PCV:IGS14_2000 OL/AL:FES2004  NONE     YN ORB:CoN CLK:CoN
*  2018 06 21 23  0  0.00000000
PC01 -32261.182326  27155.855022    586.821262   -137.209933
PC02   4478.565248  41909.340044  -1348.688812    128.800149
PC03 -14813.838234  39440.333100   -219.134044    286.767169
PC04 -39606.477631  14472.744458     30.656887    -41.489425
PC05  21922.587089  35995.642248  -1007.662235    351.050300
PC06 -18696.901529  37550.293113  -1606.409260     63.887385
PC07  -8805.869603  27299.189598  31147.024083     98.894180
PC08 -22550.191845  20452.467192 -29216.869199    402.168052
PC09  -9613.803508  38843.116773  12942.682402    -16.787263
PC10   6385.050099  35377.317579  22443.023312   -327.686591
PC11 -23816.349131   4566.167065  13922.705235   -559.543685
PC12 -11081.732738 -11085.657409  23144.719611    486.512529
PC13  -8105.656768  23856.508490 -33836.547579   -386.621342
PC14 -16083.760866  -4269.254456 -22343.662435    116.697734
PE01  23446.348048  13498.678644 -12025.931100   -373.770106
PE02 -23440.487140 -13471.824047  12046.460630     17.008620
PE03 -16347.067213  -5231.705321 -24105.044711    -46.059917
PE04  17800.745679 -16207.784588  17237.258819    -59.809855
PE05  -5303.236988 -23722.093086 -16880.987682    241.749243
PE07  -8784.907196  28270.434231   -167.165491     11.197755
PE08 -17534.873644  16420.909988 -17287.738924   6559.417363
PE09   8565.224808 -28325.655790    248.305880   6756.488241
PE11  10975.421087 -17373.985897  21305.838276   1473.873962
PE12  26983.031176 -10647.530907   5953.199657   4434.677444
PE14   9238.043915  18905.273094 -24075.825593   6563.206419
PE18    158.505484 -18561.892348  15884.767020   6115.368217
PE19  15556.612951   7214.591888  24138.966297     23.475164
PE24    414.710339 -20290.533090 -21562.635084   6640.700384
PE26  10767.197799  13971.249926 -23771.006886   5795.483084
PE30 -16872.433090   4818.166095  23827.204634   5739.300734
PG01  18090.758621  13520.180374 -14372.455970    -58.496989
PG02   4725.982995 -15118.229210  21867.122333     79.192393
PG03  13408.927635  21532.725649   7965.787687     93.185954
PG05   -480.071485 -23981.556233  11068.863806     -5.776094
PG06  19631.554200  -7619.826288  16232.903565    394.059714
PG07  26186.661598   5765.187749    453.900550    171.427488
PG08    666.003795  18945.095887 -18493.548921   -105.588217
PG09  17692.858605    794.648231  19767.967946    514.533247
PG10 -13839.065838   6357.779053 -21709.266170    188.534191
PG11  13564.860018  12538.716037 -19595.982060   -733.042731
PG12  -9695.791204 -24453.304949   4144.585439    325.885388
PG13   8755.468271 -20946.025712 -13890.500771    -93.254320
PG14 -18001.567463  19358.589418   1481.533796    -97.460761
PG15  -4728.222673 -17896.818115 -19129.974402   -352.204345
PG16  -1985.986560  23408.836049  11811.072362     20.584361
PG17  20773.106410 -14274.837589  -7783.495803    -85.898679
PG18   9540.249114  15652.371731 -19745.347212     24.503367
PG19  19447.583484 -18225.347399   -378.064175   -426.553714
PG20 -17869.584296  -3539.614504 -19502.049804    511.010806
PG21 -26304.040972  -2161.341471  -2026.761979   -378.155537
PG22  10177.540066  24542.200067   -111.534643   -433.576020
PG23  10216.969276  12153.597539  21554.640529   -215.567773
PG24 -14944.174024 -14504.259476 -16763.229034    -51.510966
PG25 -16113.820526 -14239.614370  15556.811097   -604.533084
PG26  -8111.196490  16664.543708  18963.926531   -108.058752
PG27 -10234.585422  22288.906646  -9935.839293    364.899355
PG28  14233.132970  -2337.876726 -21684.242034    725.508089
PG29 -15841.679241  -3708.645534  20966.127726    428.274665
PG30  24848.222534  -1080.470497  -9544.842197     59.724460
PG31 -18616.007239   8219.814200  17322.442127    112.973538
PG32 -20350.904110  14652.493153  -8576.000005   -489.837192
PJ01 -18979.512302  27682.263388 -20838.580850 999999.999999
PR01   6875.875514 -22739.184313   9277.896881     27.990186
PR02  -2219.526717 -23169.533800 -10448.021353    315.970512
PR03  -9440.705609  -9085.477503 -21847.689933    135.634189
PR04 -11007.797877  10800.587807 -20291.134500    265.683841
PR05  -5942.441159  23741.915252  -7211.417156    -28.104536
PR07   9601.477079   8540.084591  22069.774300    -40.612147
PR08  11130.724123 -10097.151715  20669.773943     22.615136
PR09  13821.305696  17824.081532  11994.881302     22.756083
PR10  21203.245524  13407.267624  -4887.293954     26.500421
PR11  16418.249440    752.505960 -19513.674802    -32.166873
PR13 -14143.535489 -17438.072375 -12113.429456    -11.679530
PR14 -21234.871514 -13320.906498   4680.816091     28.391510
PR15 -18464.410355  -4159.841844  17155.615398    -12.034721
PR16  -2631.986805  11429.321290  22616.765482     95.392652
PR17 -18112.692945  -1335.893588  17930.212760    142.014334
PR18 -23804.625067   8534.578673   3083.034949    200.135176
PR19 -16697.468314  13415.505157 -13853.613144    -55.164350
PR20   1683.874932  10573.015940 -23146.936941   -342.448316
PR21  18291.853864   1067.938823 -17739.797532     10.760004
PR22  23737.270207  -9481.196101   -950.781999    -53.031386
PR23  13254.134299 -13850.040120  16819.488723    161.166652
PR24  -2842.007835 -10207.635988  23174.869879   -167.901302
PR26    921.948877  10946.430948 -23014.271786     28.340456
EOF
